[{"OBJECT_NAME":"STARLINK-30108","OBJECT_ID":"2023-056P","EPOCH":"2026-03-09T13:07:34.368384","MEAN_MOTION":15.11980738,"ECCENTRICITY":0.00017014,"INCLINATION":43.0001,"RA_OF_ASC_NODE":197.0429,"ARG_OF_PERICENTER":278.3718,"MEAN_ANOMALY":81.6935,"EPHEMERIS_TYPE":0,"CLASSIFICATION_TYPE":"U","NORAD_CAT_ID":56299,"ELEMENT_SET_NO":999,"REV_AT_EPOCH":16022,"BSTAR":-0.00011039932,"MEAN_MOTION_DOT":-2.151e-5,"MEAN_MOTION_DDOT":0},{"OBJECT_NAME":"DELTA 1 DEB","OBJECT_ID":"1977-118C","EPOCH":"2026-03-09T07:30:01.620864","MEAN_MOTION":13.30512983,"ECCENTRICITY":0.08123752,"INCLINATION":29.055,"RA_OF_ASC_NODE":100.7737,"ARG_OF_PERICENTER":101.0865,"MEAN_ANOMALY":268.2043,"EPHEMERIS_TYPE":0,"CLASSIFICATION_TYPE":"U","NORAD_CAT_ID":10519,"ELEMENT_SET_NO":999,"REV_AT_EPOCH":32297,"BSTAR":0.00016439903,"MEAN_MOTION_DOT":6.17e-6,"MEAN_MOTION_DDOT":0}]
